{
  "type": "FeatureCollection",
  "features": [
    {
      "type": "Feature",
      "properties": {
        "norad_id": 40069,
        "name": "METEOR-M 2",
        "group": "weather",
        "lat": -79.81036322608813,
        "lon": 34.964498411707666,
        "alt_km": 829.5343124061401,
        "timestamp": "2025-12-27T17:24:57.035596+00:00",
        "meta_object_name": "METEOR-M 2",
        "meta_object_id": "2014-037A",
        "meta_epoch": "2025-12-27T12:44:39.289920",
        "meta_mean_motion": 14.21391833,
        "meta_eccentricity": 0.0005726,
        "meta_inclination": 98.4924,
        "meta_ra_of_asc_node": 338.5497,
        "meta_arg_of_pericenter": 164.0565,
        "meta_mean_anomaly": 196.0794,
        "meta_ephemeris_type": 0,
        "meta_classification_type": "U",
        "meta_norad_cat_id": 40069,
        "meta_element_set_no": 999,
        "meta_rev_at_epoch": 59493,
        "meta_bstar": 2.8862e-05,
        "meta_mean_motion_dot": 2.1e-07,
        "meta_mean_motion_ddot": 0,
        "tle_line1": "1 40069U 14037A   25361.53101030  .00000021  00000+0  28862-4 0  9996",
        "tle_line2": "2 40069  98.4924 338.5497 0005726 164.0565 196.0794 14.21391833594934"
      },
      "geometry": {
        "type": "Point",
        "coordinates": [
          34.964498411707666,
          -79.81036322608813
        ]
      }
    },
    {
      "type": "Feature",
      "properties": {
        "norad_id": 40267,
        "name": "HIMAWARI-8",
        "group": "weather",
        "lat": -0.022792050636059023,
        "lon": 138.3390445608437,
        "alt_km": 35790.705137647376,
        "timestamp": "2025-12-27T17:24:57.035608+00:00",
        "meta_object_name": "HIMAWARI-8",
        "meta_object_id": "2014-060A",
        "meta_epoch": "2025-12-26T08:33:59.245344",
        "meta_mean_motion": 1.0027063,
        "meta_eccentricity": 0.000101,
        "meta_inclination": 0.0427,
        "meta_ra_of_asc_node": 196.506,
        "meta_arg_of_pericenter": 108.6661,
        "meta_mean_anomaly": 59.0936,
        "meta_ephemeris_type": 0,
        "meta_classification_type": "U",
        "meta_norad_cat_id": 40267,
        "meta_element_set_no": 999,
        "meta_rev_at_epoch": 4102,
        "meta_bstar": 0,
        "meta_mean_motion_dot": -2.54e-06,
        "meta_mean_motion_ddot": 0,
        "tle_line1": "1 40267U 14060A   25360.35693571 -.00000254  00000+0  00000+0 0  9995",
        "tle_line2": "2 40267   0.0427 196.5060 0001010 108.6661  59.0936  1.00270630 41029"
      },
      "geometry": {
        "type": "Point",
        "coordinates": [
          138.3390445608437,
          -0.022792050636059023
        ]
      }
    },
    {
      "type": "Feature",
      "properties": {
        "norad_id": 40367,
        "name": "FENGYUN 2G",
        "group": "weather",
        "lat": 1.9715491614723093,
        "lon": 96.91689781191717,
        "alt_km": 35789.85547102377,
        "timestamp": "2025-12-27T17:24:57.035620+00:00",
        "meta_object_name": "FENGYUN 2G",
        "meta_object_id": "2014-090A",
        "meta_epoch": "2025-12-27T01:29:24.780768",
        "meta_mean_motion": 1.00281225,
        "meta_eccentricity": 0.00018247,
        "meta_inclination": 5.2014,
        "meta_ra_of_asc_node": 74.9206,
        "meta_arg_of_pericenter": 170.6218,
        "meta_mean_anomaly": 331.9129,
        "meta_ephemeris_type": 0,
        "meta_classification_type": "U",
        "meta_norad_cat_id": 40367,
        "meta_element_set_no": 999,
        "meta_rev_at_epoch": 4027,
        "meta_bstar": 0,
        "meta_mean_motion_dot": -2.81e-06,
        "meta_mean_motion_ddot": 0,
        "tle_line1": "1 40367U 14090A   25361.06209237 -.00000281  00000+0  00000+0 0  9990",
        "tle_line2": "2 40367   5.2014  74.9206 0001824 170.6218 331.9129  1.00281225 40274"
      },
      "geometry": {
        "type": "Point",
        "coordinates": [
          96.91689781191717,
          1.9715491614723093
        ]
      }
    },
    {
      "type": "Feature",
      "properties": {
        "norad_id": 40732,
        "name": "METEOSAT-11 (MSG-4)",
        "group": "weather",
        "lat": -2.5172953389723385,
        "lon": 6.898357262662705,
        "alt_km": 35788.85637372224,
        "timestamp": "2025-12-27T17:24:57.035633+00:00",
        "meta_object_name": "METEOSAT-11 (MSG-4)",
        "meta_object_id": "2015-034A",
        "meta_epoch": "2025-12-27T04:29:09.250368",
        "meta_mean_motion": 1.00272015,
        "meta_eccentricity": 6.53e-05,
        "meta_inclination": 2.7726,
        "meta_ra_of_asc_node": 71.9621,
        "meta_arg_of_pericenter": 136.4187,
        "meta_mean_anomaly": 324.0135,
        "meta_ephemeris_type": 0,
        "meta_classification_type": "U",
        "meta_norad_cat_id": 40732,
        "meta_element_set_no": 999,
        "meta_rev_at_epoch": 549,
        "meta_bstar": 0,
        "meta_mean_motion_dot": 8.3e-07,
        "meta_mean_motion_ddot": 0,
        "tle_line1": "1 40732U 15034A   25361.18691262  .00000083  00000+0  00000+0 0  9990",
        "tle_line2": "2 40732   2.7726  71.9621 0000653 136.4187 324.0135  1.00272015  5496"
      },
      "geometry": {
        "type": "Point",
        "coordinates": [
          6.898357262662705,
          -2.5172953389723385
        ]
      }
    },
    {
      "type": "Feature",
      "properties": {
        "norad_id": 41105,
        "name": "ELEKTRO-L 2",
        "group": "weather",
        "lat": -6.271518404730099,
        "lon": -16.741889615695065,
        "alt_km": 35779.95639857058,
        "timestamp": "2025-12-27T17:24:57.035645+00:00",
        "meta_object_name": "ELEKTRO-L 2",
        "meta_object_id": "2015-074A",
        "meta_epoch": "2025-12-27T09:30:32.887008",
        "meta_mean_motion": 1.00271539,
        "meta_eccentricity": 0.000372,
        "meta_inclination": 6.2602,
        "meta_ra_of_asc_node": 72.654,
        "meta_arg_of_pericenter": 207.1147,
        "meta_mean_anomaly": 304.5247,
        "meta_ephemeris_type": 0,
        "meta_classification_type": "U",
        "meta_norad_cat_id": 41105,
        "meta_element_set_no": 999,
        "meta_rev_at_epoch": 3678,
        "meta_bstar": 0,
        "meta_mean_motion_dot": -9.8e-07,
        "meta_mean_motion_ddot": 0,
        "tle_line1": "1 41105U 15074A   25361.39621397 -.00000098  00000+0  00000+0 0  9991",
        "tle_line2": "2 41105   6.2602  72.6540 0003720 207.1147 304.5247  1.00271539 36784"
      },
      "geometry": {
        "type": "Point",
        "coordinates": [
          -16.741889615695065,
          -6.271518404730099
        ]
      }
    },
    {
      "type": "Feature",
      "properties": {
        "norad_id": 41752,
        "name": "INSAT-3DR",
        "group": "weather",
        "lat": 0.0051697870048760955,
        "lon": 71.72997434635424,
        "alt_km": 35843.27692045419,
        "timestamp": "2025-12-27T17:24:57.035657+00:00",
        "meta_object_name": "INSAT-3DR",
        "meta_object_id": "2016-054A",
        "meta_epoch": "2025-12-27T09:55:45.471936",
        "meta_mean_motion": 1.00271375,
        "meta_eccentricity": 0.0014402,
        "meta_inclination": 0.0429,
        "meta_ra_of_asc_node": 85.6495,
        "meta_arg_of_pericenter": 186.5991,
        "meta_mean_anomaly": 46.8253,
        "meta_ephemeris_type": 0,
        "meta_classification_type": "U",
        "meta_norad_cat_id": 41752,
        "meta_element_set_no": 999,
        "meta_rev_at_epoch": 3409,
        "meta_bstar": 0,
        "meta_mean_motion_dot": -5.4e-07,
        "meta_mean_motion_ddot": 0,
        "tle_line1": "1 41752U 16054A   25361.41372074 -.00000054  00000+0  00000+0 0  9998",
        "tle_line2": "2 41752   0.0429  85.6495 0014402 186.5991  46.8253  1.00271375 34093"
      },
      "geometry": {
        "type": "Point",
        "coordinates": [
          71.72997434635424,
          0.0051697870048760955
        ]
      }
    },
    {
      "type": "Feature",
      "properties": {
        "norad_id": 41836,
        "name": "HIMAWARI-9",
        "group": "weather",
        "lat": 0.01909593513709701,
        "lon": 138.44579593451496,
        "alt_km": 35790.23755626734,
        "timestamp": "2025-12-27T17:24:57.035670+00:00",
        "meta_object_name": "HIMAWARI-9",
        "meta_object_id": "2016-064A",
        "meta_epoch": "2025-12-27T06:49:10.839072",
        "meta_mean_motion": 1.00267784,
        "meta_eccentricity": 9.49e-05,
        "meta_inclination": 0.0135,
        "meta_ra_of_asc_node": 82.1147,
        "meta_arg_of_pericenter": 194.3858,
        "meta_mean_anomaly": 62.5887,
        "meta_ephemeris_type": 0,
        "meta_classification_type": "U",
        "meta_norad_cat_id": 41836,
        "meta_element_set_no": 999,
        "meta_rev_at_epoch": 3348,
        "meta_bstar": 0,
        "meta_mean_motion_dot": -2.53e-06,
        "meta_mean_motion_ddot": 0,
        "tle_line1": "1 41836U 16064A   25361.28415323 -.00000253  00000+0  00000+0 0  9993",
        "tle_line2": "2 41836   0.0135  82.1147 0000949 194.3858  62.5887  1.00267784 33485"
      },
      "geometry": {
        "type": "Point",
        "coordinates": [
          138.44579593451496,
          0.01909593513709701
        ]
      }
    }
  ]
}